{"type": "FeatureCollection", "features": [ {"type": "Feature", "properties": {"norad_id": 31566, "name": "FENGYUN 1C DEB", "group": "fengyun-1c-debris", "lat": -28.72385329654085, "lon": -126.24025534030413, "alt_km": 777.2389269456617, "timestamp": "2025-12-25T07:00:34.331306+00:00", "meta": {"OBJECT_NAME": "FENGYUN 1C DEB", "OBJECT_ID": "1999-025BZH", "EPOCH": "2025-12-24T17:16:43.430304", "MEAN_MOTION": 14.37528921, "ECCENTRICITY": 0.0023347, "INCLINATION": 98.9477, "RA_OF_ASC_NODE": 58.1179, "ARG_OF_PERICENTER": 317.433, "MEAN_ANOMALY": 172.7384, "EPHEMERIS_TYPE": 0, "CLASSIFICATION_TYPE": "U", "NORAD_CAT_ID": 31566, "ELEMENT_SET_NO": 999, "REV_AT_EPOCH": 96563, "BSTAR": 0.0020755675, "MEAN_MOTION_DOT": 6.195e-05, "MEAN_MOTION_DDOT": 0}, "tle": {"line1": "1 31566U 99025BZH 25358.71994711  .00006195  00000+0  20756-2 0  9990", "line2": "2 31566  98.9477  58.1179 0023347 317.4330 172.7384 14.37528921965631"}}, "geometry": {"type": "Point", "coordinates": [-126.24025534030413, -28.72385329654085]}}, {"type": "Feature", "properties": {"norad_id": 31567, "name": "FENGYUN 1C DEB", "group": "fengyun-1c-debris", "lat": -65.38559236942169, "lon": -101.41703156259183, "alt_km": 792.5406336173046, "timestamp": "2025-12-25T07:00:34.331317+00:00", "meta": {"OBJECT_NAME": "FENGYUN 1C DEB", "OBJECT_ID": "1999-025BZJ", "EPOCH": "2025-12-23T20:51:17.831232", "MEAN_MOTION": 13.92963607, "ECCENTRICITY": 0.01864, "INCLINATION": 102.3176, "RA_OF_ASC_NODE": 228.2111, "ARG_OF_PERICENTER": 282.1033, "MEAN_ANOMALY": 75.9286, "EPHEMERIS_TYPE": 0, "CLASSIFICATION_TYPE": "U", "NORAD_CAT_ID": 31567, "ELEMENT_SET_NO": 999, "REV_AT_EPOCH": 67564, "BSTAR": 0.002809, "MEAN_MOTION_DOT": 4.139e-05, "MEAN_MOTION_DDOT": 0}, "tle": {"line1": "1 31567U 99025BZJ 25357.86895638  .00004139  00000+0  28090-2 0  9999", "line2": "2 31567 102.3176 228.2111 0186400 282.1033  75.9286 13.92963607675640"}}, "geometry": {"type": "Point", "coordinates": [-101.41703156259183, -65.38559236942169]}}, {"type": "Feature", "properties": {"norad_id": 31568, "name": "FENGYUN 1C DEB", "group": "fengyun-1c-debris", "lat": -39.05732462354011, "lon": 55.45212716735935, "alt_km": 947.6196728356554, "timestamp": "2025-12-25T07:00:34.331327+00:00", "meta": {"OBJECT_NAME": "FENGYUN 1C DEB", "OBJECT_ID": "1999-025BZK", "EPOCH": "2025-12-22T23:13:36.644736", "MEAN_MOTION": 14.03431945, "ECCENTRICITY": 0.01239953, "INCLINATION": 102.049, "RA_OF_ASC_NODE": 242.3634, "ARG_OF_PERICENTER": 93.8828, "MEAN_ANOMALY": 267.6513, "EPHEMERIS_TYPE": 0, "CLASSIFICATION_TYPE": "U", "NORAD_CAT_ID": 31568, "ELEMENT_SET_NO": 999, "REV_AT_EPOCH": 94723, "BSTAR": 0.0030433024, "MEAN_MOTION_DOT": 5.034e-05, "MEAN_MOTION_DDOT": 0}, "tle": {"line1": "1 31568U 99025BZK 25356.96778524  .00005034  00000+0  30433-2 0  9993", "line2": "2 31568 102.0490 242.3634 0123995  93.8828 267.6513 14.03431945947231"}}, "geometry": {"type": "Point", "coordinates": [55.45212716735935, -39.05732462354011]}}, {"type": "Feature", "properties": {"norad_id": 31569, "name": "FENGYUN 1C DEB", "group": "fengyun-1c-debris", "lat": 48.95145735071127, "lon": 146.1876783370901, "alt_km": 868.9376491149951, "timestamp": "2025-12-25T07:00:34.331385+00:00", "meta": {"OBJECT_NAME": "FENGYUN 1C DEB", "OBJECT_ID": "1999-025BZL", "EPOCH": "2025-12-24T17:06:45.108576", "MEAN_MOTION": 13.95605241, "ECCENTRICITY": 0.01747037, "INCLINATION": 102.6156, "RA_OF_ASC_NODE": 160.301, "ARG_OF_PERICENTER": 337.2691, "MEAN_ANOMALY": 43.6474, "EPHEMERIS_TYPE": 0, "CLASSIFICATION_TYPE": "U", "NORAD_CAT_ID": 31569, "ELEMENT_SET_NO": 999, "REV_AT_EPOCH": 93846, "BSTAR": 0.0022837757, "MEAN_MOTION_DOT": 3.459e-05, "MEAN_MOTION_DDOT": 0}, "tle": {"line1": "1 31569U 99025BZL 25358.71302209  .00003459  00000+0  22838-2 0  9991", "line2": "2 31569 102.6156 160.3010 0174703 337.2691  43.6474 13.95605241938465"}}, "geometry": {"type": "Point", "coordinates": [146.1876783370901, 48.95145735071127]}}, {"type": "Feature", "properties": {"norad_id": 31570, "name": "FENGYUN 1C DEB", "group": "fengyun-1c-debris", "lat": -12.251231985815778, "lon": -139.18456899281614, "alt_km": 700.2504044301604, "timestamp": "2025-12-25T07:00:34.331417+00:00", "meta": {"OBJECT_NAME": "FENGYUN 1C DEB", "OBJECT_ID": "1999-025BZM", "EPOCH": "2025-12-19T23:45:35.930016", "MEAN_MOTION": 14.25330142, "ECCENTRICITY": 0.01547682, "INCLINATION": 102.5663, "RA_OF_ASC_NODE": 36.0247, "ARG_OF_PERICENTER": 206.1842, "MEAN_ANOMALY": 153.1437, "EPHEMERIS_TYPE": 0, "CLASSIFICATION_TYPE": "U", "NORAD_CAT_ID": 31570, "ELEMENT_SET_NO": 999, "REV_AT_EPOCH": 63470, "BSTAR": 0.0019503601, "MEAN_MOTION_DOT": 5.132e-05, "MEAN_MOTION_DDOT": 0}, "tle": {"line1": "1 31570U 99025BZM 25353.98999919  .00005132  00000+0  19504-2 0  9993", "line2": "2 31570 102.5663  36.0247 0154768 206.1842 153.1437 14.25330142634706"}}, "geometry": {"type": "Point", "coordinates": [-139.18456899281614, -12.251231985815778]}}, {"type": "Feature", "properties": {"norad_id": 31608, "name": "FENGYUN 1C DEB", "group": "fengyun-1c-debris", "lat": 40.668471157224836, "lon": -54.6227392607907, "alt_km": 686.4835317188699, "timestamp": "2025-12-25T07:00:34.331442+00:00", "meta": {"OBJECT_NAME": "FENGYUN 1C DEB", "OBJECT_ID": "1999-025BZN", "EPOCH": "2025-12-17T14:09:29.850912", "MEAN_MOTION": 14.85908283, "ECCENTRICITY": 0.01457059, "INCLINATION": 98.3797, "RA_OF_ASC_NODE": 109.9897, "ARG_OF_PERICENTER": 22.0076, "MEAN_ANOMALY": 338.7309, "EPHEMERIS_TYPE": 0, "CLASSIFICATION_TYPE": "U", "NORAD_CAT_ID": 31608, "ELEMENT_SET_NO": 999, "REV_AT_EPOCH": 98705, "BSTAR": 0.00045964647, "MEAN_MOTION_DOT": 4.79e-05, "MEAN_MOTION_DDOT": 0}, "tle": {"line1": "1 31608U 99025BZN 25351.58992883  .00004790  00000+0  45965-3 0  9992", "line2": "2 31608  98.3797 109.9897 0145705  22.0076 338.7309 14.85908283987055"}}, "geometry": {"type": "Point", "coordinates": [-54.6227392607907, 40.668471157224836]}}, {"type": "Feature", "properties": {"norad_id": 31609, "name": "FENGYUN 1C DEB", "group": "fengyun-1c-debris", "lat": 47.28259366519543, "lon": 18.11605411047061, "alt_km": 872.2596593512935, "timestamp": "2025-12-25T07:00:34.331465+00:00", "meta": {"OBJECT_NAME": "FENGYUN 1C DEB", "OBJECT_ID": "1999-025BZP", "EPOCH": "2025-12-22T21:42:13.279104", "MEAN_MOTION": 14.15844126, "ECCENTRICITY": 0.0094714, "INCLINATION": 99.2139, "RA_OF_ASC_NODE": 25.7728, "ARG_OF_PERICENTER": 291.5289, "MEAN_ANOMALY": 191.9396, "EPHEMERIS_TYPE": 0, "CLASSIFICATION_TYPE": "U", "NORAD_CAT_ID": 31609, "ELEMENT_SET_NO": 999, "REV_AT_EPOCH": 66228, "BSTAR": 0.002391, "MEAN_MOTION_DOT": 4.866e-05, "MEAN_MOTION_DDOT": 0}, "tle": {"line1": "1 31609U 99025BZP 25356.90432036  .00004866  00000+0  23910-2 0  9992", "line2": "2 31609  99.2139  25.7728 0094714 291.5289 191.9396 14.15844126662284"}}, "geometry": {"type": "Point", "coordinates": [18.11605411047061, 47.28259366519543]}}, {"type": "Feature", "properties": {"norad_id": 31612, "name": "FENGYUN 1C DEB", "group": "fengyun-1c-debris", "lat": 75.29692012571691, "lon": 144.98400224618, "alt_km": 314.30728588650345, "timestamp": "2025-12-25T07:00:34.331488+00:00", "meta": {"OBJECT_NAME": "FENGYUN 1C DEB", "OBJECT_ID": "1999-025BZS", "EPOCH": "2025-12-24T12:18:55.437696", "MEAN_MOTION": 15.76867057, "ECCENTRICITY": 0.00289133, "INCLINATION": 100.3352, "RA_OF_ASC_NODE": 279.7575, "ARG_OF_PERICENTER": 69.6448, "MEAN_ANOMALY": 290.791, "EPHEMERIS_TYPE": 0, "CLASSIFICATION_TYPE": "U", "NORAD_CAT_ID": 31612, "ELEMENT_SET_NO": 999, "REV_AT_EPOCH": 190, "BSTAR": 0.0023631516, "MEAN_MOTION_DOT": 0.00407886, "MEAN_MOTION_DDOT": 0}, "tle": {"line1": "1 31612U 99025BZS 25358.51314164  .00407886  00000+0  23632-2 0  9996", "line2": "2 31612 100.3352 279.7575 0028913  69.6448 290.7910 15.76867057  1901"}}, "geometry": {"type": "Point", "coordinates": [144.98400224618, 75.29692012571691]}}, {"type": "Feature", "properties": {"norad_id": 31613, "name": "FENGYUN 1C DEB", "group": "fengyun-1c-debris", "lat": -18.215728690635597, "lon": 1.888410028110147, "alt_km": 1169.502290265933, "timestamp": "2025-12-25T07:00:34.331513+00:00", "meta": {"OBJECT_NAME": "FENGYUN 1C DEB", "OBJECT_ID": "1999-025BZT", "EPOCH": "2025-12-23T06:31:23.498400", "MEAN_MOTION": 13.63471347, "ECCENTRICITY": 0.03426742, "INCLINATION": 98.424, "RA_OF_ASC_NODE": 182.93, "ARG_OF_PERICENTER": 78.1321, "MEAN_ANOMALY": 285.8034, "EPHEMERIS_TYPE": 0, "CLASSIFICATION_TYPE": "U", "NORAD_CAT_ID": 31613, "ELEMENT_SET_NO": 999, "REV_AT_EPOCH": 91905, "BSTAR": 0.0011595288, "MEAN_MOTION_DOT": 1.328e-05, "MEAN_MOTION_DDOT": 0}, "tle": {"line1": "1 31613U 99025BZT 25357.27179975  .00001328  00000+0  11595-2 0  9994", "line2": "2 31613  98.4240 182.9300 0342674  78.1321 285.8034 13.63471347919057"}}, "geometry": {"type": "Point", "coordinates": [1.888410028110147, -18.215728690635597]}}, {"type": "Feature", "properties": {"norad_id": 31614, "name": "FENGYUN 1C DEB", "group": "fengyun-1c-debris", "lat": -32.0581819586565, "lon": 81.27513178077257, "alt_km": 580.112911377455, "timestamp": "2025-12-25T07:00:34.331538+00:00", "meta": {"OBJECT_NAME": "FENGYUN 1C DEB", "OBJECT_ID": "1999-025BZU", "EPOCH": "2025-12-24T17:29:41.103744", "MEAN_MOTION": 14.99477571, "ECCENTRICITY": 0.00177456, "INCLINATION": 98.9741, "RA_OF_ASC_NODE": 266.3069, "ARG_OF_PERICENTER": 332.6849, "MEAN_ANOMALY": 81.8375, "EPHEMERIS_TYPE": 0, "CLASSIFICATION_TYPE": "U", "NORAD_CAT_ID": 31614, "ELEMENT_SET_NO": 999, "REV_AT_EPOCH": 96609, "BSTAR": 0.0079882071, "MEAN_MOTION_DOT": 0.00099588, "MEAN_MOTION_DDOT": 0}, "tle": {"line1": "1 31614U 99025BZU 25358.72894796  .00099588  00000+0  79882-2 0  9999", "line2": "2 31614  98.9741 266.3069 0017745 332.6849  81.8375 14.99477571966092"}}, "geometry": {"type": "Point", "coordinates": [81.27513178077257, -32.0581819586565]}}]}